{"type":"FeatureCollection","features":[{"type":"Feature","geometry":{"type":"Point","coordinates":[147.007633,-17.967265]},"properties":{"Name":"The Great Barrier Reef Marine Park","Date":1975,"Description":"Great Barrier Reef Marine Park Act of 1975 led to the Special Law for Galapagos legally establishing the Galapagos Marine Reserve in 1998."}},{"type":"Feature","geometry":{"type":"Point","coordinates":[38.456789,-2.99259]},"properties":{"Name":"Tsavo National Park","Date":1966,"Description":"The Snow and Grimwood Report was presented to the Ecuadorian gov't."}},{"type":"Feature","geometry":{"type":"Point","coordinates":[-110.80627,44.548992]},"bbox":[-111.054559,44.122694,-109.825484,45.003535],"properties":{"label":"Yellowstone National Park - Wyoming, United States","Name":"Yellowstone National Park","Date":1936,"Description":"The U.S. Tariff Act and Customs Order, mandated the confiscation of any Galapagos wildlife imported into the U.S. in violation of the Ecuadorian law. This was agreed enforcement of Ecuador's early Supreme Decree 31 which declared the islands as a national reserve. "}},{"type":"Feature","geometry":{"type":"Point","coordinates":[-90.429677,-1.279098]},"properties":{"label":"Floreana Island - Galápagos, Ecuador","Name":"Floreana Island","Date":"1807-1809","Description":"Home of the first Galapagos resident, Irishman Patrick Watkins."}},{"type":"Feature","properties":{"Name":"Galapagos Islands - Galápagos, Ecuador"},"geometry":{"type":"Polygon","coordinates":[[[-91.792348,-0.135123],[-91.54426,-1.012485],[-90.477268,-1.494834],[-89.577283,-1.494834],[-89.13193,-0.724894],[-89.837072,0.416301],[-90.829839,0.722466],[-91.792348,-0.135123]]]}},{"type":"Feature","geometry":{"type":"Point","coordinates":[-78.432915,-1.160171]},"bbox":[-91.907213,-5.013139,-75.187147,1.479966],"properties":{"label":"Ecuador","Name":"Ecuador"}},{"type":"Feature","geometry":{"type":"Point","coordinates":[-90.30404,-0.742051]},"properties":{"Name":"The Inspiration Complex at the Charles Darwin Foundation","Date":"Oct 17, 2022","Description":"the governments of Ecuador and Germany, through the KfW Development Bank, signed a 5-year agreement that will fund the implementation of the program \"Biodiversity Protection in the Galapagos Islands\", for a total value of 15 million euros","Deep Dive":"https://www.darwinfoundation.org/en/news/all-news-stories/our-scientists-welcome-the-german-government-s-support-to-fight-invasive-species-in-the-galapagos/"}},{"type":"Feature","properties":{"Name":"KfW Development Bank","Date":"Oct 17, 2022"},"geometry":{"type":"Point","coordinates":[8.654924,50.120224]}},{"type":"Feature","geometry":{"type":"Point","coordinates":[-89.611284,-0.903513]},"properties":{"Name":"Puerto Baquerizo Moreno","Date":"1959, 1973","Description":"The administrative capital of the islands, excluded from the boundaries of the National Park. ","Deep Dive":"July 14, 1959: creation of the national park, excluding 3% of the islands where human settlement already existed. February 18, 1973: the islands were declared an Ecuadorian province and given a desginated capital, bringing forth plans for infrastructure to encourage tourism as it was the primary economic source for residents. "}},{"type":"Feature","geometry":{"type":"Point","coordinates":[-89.607095,-0.870169]},"properties":{"Name":"Galapagos Academic Institute for the Arts and Sciences","Date":2002,"Description":"Contributing data, research, and technology to determine important conservation policy changes. "}},{"type":"Feature","geometry":{"type":"Point","coordinates":[-90.268973,-0.444594]},"properties":{"Name":"Baltra Airport","Date":1963,"Description":"One of the two commerical airports that regulate  incoming tourism, working to prevent incoming and outgoing traffic from harming the ecosystem."}}]}